#aV2023 10 26  0  0  0.00000000     288 DD+AD WGS84 FIT  NGA
## 2285 345600.00000000   300.00000000 60243 0.0000000000000
+   32     1  2  3  4  5  6  7  8  9 10 11 12 13 14 15 16 17
+         18 19 20 21 22 23 24 25 26 27 28 29 30 31 32  0  0
+          0  0  0  0  0  0  0  0  0  0  0  0  0  0  0  0  0
+          0  0  0  0  0  0  0  0  0  0  0  0  0  0  0  0  0
+          0  0  0  0  0  0  0  0  0  0  0  0  0  0  0  0  0
++         2  2  2  2  2  2  2  2  2  2  2  2  2  2  2  2  2
++         2  2  2  2  2  2  2  2  2  2  2  2  2  2  2  0  0
++         0  0  0  0  0  0  0  0  0  0  0  0  0  0  0  0  0
++         0  0  0  0  0  0  0  0  0  0  0  0  0  0  0  0  0
++         0  0  0  0  0  0  0  0  0  0  0  0  0  0  0  0  0
%c cc cc ccc ccc cccc cccc cccc cccc ccccc ccccc ccccc ccccc
%c cc cc ccc ccc cccc cccc cccc cccc ccccc ccccc ccccc ccccc
%f  0.0000000  0.000000000  0.00000000000  0.000000000000000
%f  0.0000000  0.000000000  0.00000000000  0.000000000000000
%i    0    0    0    0      0      0      0      0         0
%i    0    0    0    0      0      0      0      0         0
/*      NGA, ST. LOUIS,MO.                                  
/*   EPHEMERIS COMPUTED FROM 2 DAYS OF DATA                 
/*   EPOCHA v8 SMOOTHER                                     
/*   G2139 IERS2010 SATIGS SATAPC                           
*  2023 10 26 11 35  0.00000000
P  1  -1910.877613  15644.386463 -21658.919137    163.388521                    
V  1 -25448.514845   8049.900367   8518.788224     -0.002495                    
P  2  -8519.615422  17299.702044 -17677.579605   -537.200755                    
V  2 -22099.138546   8225.664735  18370.994273      0.048465                    
P  3   7728.872449  20197.576901 -15637.117647    -55.305668                    
V  3 -15832.616839 -11481.823383 -22765.737740      0.236914                    
P  4     26.466145  25368.938826   7646.382370    195.243062                    
V  4  -4645.100561   8959.723353 -29862.042705      0.106704                    
P  5   5907.282231 -14114.520341  21520.759877   -147.964326                    
V  5  22319.743016  16483.751442   4735.641336     -0.014488                    
P  6  25549.235536  -5487.765633  -4964.064583    521.798236                    
V  6  -5412.242986   3773.530541 -31504.714289     -0.089785                    
P  7  16212.135975   9052.693872  19634.966362     30.194853                    
V  7 -22034.335844   9062.651716  13891.937217     -0.100982                    
P  8  -5314.888925  25698.816601   2159.693903   -149.013664                    
V  8  -2860.871614  -3320.851710  31758.469253     -0.018910                    
P  9   8140.636477  19753.626627  15656.892165    -21.486482                    
V  9  -5122.320297  19522.760887 -21898.136591      0.109511                    
P 10 -22413.727901  -8949.650063 -11270.166945    -58.864589                    
V 10  -9991.880083 -10574.070543  27488.751734     -0.014916                    
P 11  22427.386843 -12173.354056   7284.241408   -432.328138                    
V 11   9571.041336   -290.659665 -30083.204364     -0.169296                    
P 12  -4098.570545 -20305.473042 -16942.207596   -440.089640                    
V 12  16179.380977  13404.432592 -20239.096143     -0.041713                    
P 13  13340.921929 -20874.862159   9075.949501    588.305079                    
V 13  -1285.402958  12057.080279  29189.525811      0.042470                    
P 14  22352.708412  11823.394019  -8383.949371    225.091231                    
V 14   6058.954795   9208.864755  28887.577178      0.109673                    
P 15   1305.207791 -26376.466985    699.620127     90.866881                    
V 15   3861.380363   1587.351935  31260.671190      0.037504                    
P 16 -12258.978273   8885.001371  21533.452241   -432.876063                    
V 16 -19782.911894 -19894.488822  -2566.942368      0.062927                    
P 17  13988.501354   4891.108823 -21600.315302    723.696562                    
V 17  -6890.780904  27609.428873   1872.202279     -0.002234                    
P 18 -17492.418361  -7395.672236  18653.751243   -460.434376                    
V 18  21920.662651  -8722.751949  16927.678016     -0.114200                    
P 19  16055.107026  -4146.404225 -20863.246243    390.201923                    
V 19  -6365.672421  25332.584972 -10362.719790      0.052224                    
P 20  16614.355370  -6557.354136  19642.600511    404.866132                    
V 20  20853.368392  13746.748908 -13262.752517     -0.019336                    
P 21 -11337.464691  17288.665585 -15613.407288    145.867648                    
V 21 -20278.895918   6540.508945  22178.812907     -0.009008                    
P 22  20859.284348   6980.687804 -14229.857407     95.717231                    
V 22  11651.277393  15145.803011  24036.270741     -0.071161                    
P 23 -20705.832720 -16789.799296    451.637253     88.624031                    
V 23   1790.685506  -1362.253987  31961.421394      0.059973                    
P 24   5748.646499 -18076.317910 -18817.330735   -355.793196                    
V 24  21923.217934  -8201.443441  15311.723260     -0.095000                    
P 25 -16064.057731 -20056.482871  -7571.979636    474.519920                    
V 25   8734.500169   3735.488906 -29424.935744      0.017648                    
P 26 -19725.049516   1948.953368  17714.557298    220.842517                    
V 26 -17305.226161 -14827.498030 -17151.784517     -0.024033                    
P 27 -12649.632747  18675.765493  13424.902520    -60.839196                    
V 27    552.487679 -17794.179221  25211.244105     -0.055919                    
P 28 -25158.019733   4798.184241  -7065.242257    -32.830469                    
V 28   7311.257255  -5776.715185 -30059.631939     -0.075051                    
P 29  -5932.220578 -20335.684079  15914.579909   -610.190309                    
V 29   6729.145673 -19229.129633 -22101.991629     -0.000929                    
P 30  23421.148724   1648.164301  12788.597701   -474.803578                    
V 30 -14175.171173   7896.059047  24917.550169      0.038253                    
P 31 -24846.635865   9797.437263   1874.430665   -225.080764                    
V 31  -3304.335280  -1686.969203 -31231.675588     -0.004122                    
P 32 -15258.489744   -181.842603 -21543.511489   -577.795202                    
V 32   4241.492951 -27486.007622  -2952.102098     -0.049765                    
EOF
